{
  "type": "FeatureCollection",
  "features": [
    {
      "type": "Feature",
      "properties": {
        "norad_id": 29807,
        "name": "FENGYUN 1C DEB",
        "group": "fengyun-1c-debris",
        "lat": -34.36455735787176,
        "lon": 163.60487958045894,
        "alt_km": 900.5458019372072,
        "timestamp": "2025-12-10T23:33:13.089772+00:00",
        "meta_object_name": "FENGYUN 1C DEB",
        "meta_object_id": "1999-025CZ",
        "meta_epoch": "2025-12-10T12:18:14.121216",
        "meta_mean_motion": 14.08654616,
        "meta_eccentricity": 0.00796039,
        "meta_inclination": 98.7549,
        "meta_ra_of_asc_node": 349.1985,
        "meta_arg_of_pericenter": 338.2719,
        "meta_mean_anomaly": 21.508,
        "meta_ephemeris_type": 0,
        "meta_classification_type": "U",
        "meta_norad_cat_id": 29807,
        "meta_element_set_no": 999,
        "meta_rev_at_epoch": 97063,
        "meta_bstar": 0.00045587332,
        "meta_mean_motion_dot": 7.64e-06,
        "meta_mean_motion_ddot": 0,
        "tle_line1": "1 29807U 99025CZ  25344.51266344  .00000764  00000+0  45587-3 0  9998",
        "tle_line2": "2 29807  98.7549 349.1985 0079603 338.2719  21.5080 14.08654616970639"
      },
      "geometry": {
        "type": "Point",
        "coordinates": [
          163.60487958045894,
          -34.36455735787176
        ]
      }
    },
    {
      "type": "Feature",
      "properties": {
        "norad_id": 29808,
        "name": "FENGYUN 1C DEB",
        "group": "fengyun-1c-debris",
        "lat": -33.55208934055217,
        "lon": -90.97359573141205,
        "alt_km": 517.7385625805982,
        "timestamp": "2025-12-10T23:33:13.089781+00:00",
        "meta_object_name": "FENGYUN 1C DEB",
        "meta_object_id": "1999-025DA",
        "meta_epoch": "2025-12-10T06:53:45.056256",
        "meta_mean_motion": 15.20012558,
        "meta_eccentricity": 0.0018441,
        "meta_inclination": 99.0144,
        "meta_ra_of_asc_node": 262.1543,
        "meta_arg_of_pericenter": 94.6945,
        "meta_mean_anomaly": 35.1505,
        "meta_ephemeris_type": 0,
        "meta_classification_type": "U",
        "meta_norad_cat_id": 29808,
        "meta_element_set_no": 999,
        "meta_rev_at_epoch": 98188,
        "meta_bstar": 0.019081,
        "meta_mean_motion_dot": 0.00437584,
        "meta_mean_motion_ddot": 0,
        "tle_line1": "1 29808U 99025DA  25344.28732704  .00437584  00000+0  19081-1 0  9993",
        "tle_line2": "2 29808  99.0144 262.1543 0018441  94.6945  35.1505 15.20012558981886"
      },
      "geometry": {
        "type": "Point",
        "coordinates": [
          -90.97359573141205,
          -33.55208934055217
        ]
      }
    },
    {
      "type": "Feature",
      "properties": {
        "norad_id": 29809,
        "name": "FENGYUN 1C DEB",
        "group": "fengyun-1c-debris",
        "lat": -1.4484386811816434,
        "lon": -51.33180654921376,
        "alt_km": 657.3486004277056,
        "timestamp": "2025-12-10T23:33:13.089790+00:00",
        "meta_object_name": "FENGYUN 1C DEB",
        "meta_object_id": "1999-025DB",
        "meta_epoch": "2025-12-10T10:51:01.807200",
        "meta_mean_motion": 14.46580793,
        "meta_eccentricity": 0.01162881,
        "meta_inclination": 98.8599,
        "meta_ra_of_asc_node": 307.8889,
        "meta_arg_of_pericenter": 356.8754,
        "meta_mean_anomaly": 126.8677,
        "meta_ephemeris_type": 0,
        "meta_classification_type": "U",
        "meta_norad_cat_id": 29809,
        "meta_element_set_no": 999,
        "meta_rev_at_epoch": 99434,
        "meta_bstar": 0.00063682746,
        "meta_mean_motion_dot": 2.444e-05,
        "meta_mean_motion_ddot": 0,
        "tle_line1": "1 29809U 99025DB  25344.45210425  .00002444  00000+0  63683-3 0  9996",
        "tle_line2": "2 29809  98.8599 307.8889 0116288 356.8754 126.8677 14.46580793994348"
      },
      "geometry": {
        "type": "Point",
        "coordinates": [
          -51.33180654921376,
          -1.4484386811816434
        ]
      }
    },
    {
      "type": "Feature",
      "properties": {
        "norad_id": 29810,
        "name": "FENGYUN 1C DEB",
        "group": "fengyun-1c-debris",
        "lat": 46.119895973160936,
        "lon": -148.58338098755866,
        "alt_km": 805.9399522817084,
        "timestamp": "2025-12-10T23:33:13.089800+00:00",
        "meta_object_name": "FENGYUN 1C DEB",
        "meta_object_id": "1999-025DC",
        "meta_epoch": "2025-12-10T08:05:54.255264",
        "meta_mean_motion": 14.291248,
        "meta_eccentricity": 0.0067046,
        "meta_inclination": 99.2069,
        "meta_ra_of_asc_node": 21.027,
        "meta_arg_of_pericenter": 25.8881,
        "meta_mean_anomaly": 35.1406,
        "meta_ephemeris_type": 0,
        "meta_classification_type": "U",
        "meta_norad_cat_id": 29810,
        "meta_element_set_no": 999,
        "meta_rev_at_epoch": 98343,
        "meta_bstar": 0.00039703,
        "meta_mean_motion_dot": 9.83e-06,
        "meta_mean_motion_ddot": 0,
        "tle_line1": "1 29810U 99025DC  25344.33743351  .00000983  00000+0  39703-3 0  9996",
        "tle_line2": "2 29810  99.2069  21.0270 0067046  25.8881  35.1406 14.29124800983431"
      },
      "geometry": {
        "type": "Point",
        "coordinates": [
          -148.58338098755866,
          46.119895973160936
        ]
      }
    },
    {
      "type": "Feature",
      "properties": {
        "norad_id": 29812,
        "name": "FENGYUN 1C DEB",
        "group": "fengyun-1c-debris",
        "lat": -1.6068420851817624,
        "lon": -6.271490076227707,
        "alt_km": 981.6816269284427,
        "timestamp": "2025-12-10T23:33:13.089809+00:00",
        "meta_object_name": "FENGYUN 1C DEB",
        "meta_object_id": "1999-025DE",
        "meta_epoch": "2025-12-07T01:05:47.261760",
        "meta_mean_motion": 14.01959129,
        "meta_eccentricity": 0.01444592,
        "meta_inclination": 98.3498,
        "meta_ra_of_asc_node": 170.3581,
        "meta_arg_of_pericenter": 343.8427,
        "meta_mean_anomaly": 145.6696,
        "meta_ephemeris_type": 0,
        "meta_classification_type": "U",
        "meta_norad_cat_id": 29812,
        "meta_element_set_no": 999,
        "meta_rev_at_epoch": 96092,
        "meta_bstar": 0.0016935691,
        "meta_mean_motion_dot": 2.789e-05,
        "meta_mean_motion_ddot": 0,
        "tle_line1": "1 29812U 99025DE  25341.04568590  .00002789  00000+0  16936-2 0  9991",
        "tle_line2": "2 29812  98.3498 170.3581 0144459 343.8427 145.6696 14.01959129960922"
      },
      "geometry": {
        "type": "Point",
        "coordinates": [
          -6.271490076227707,
          -1.6068420851817624
        ]
      }
    },
    {
      "type": "Feature",
      "properties": {
        "norad_id": 29813,
        "name": "FENGYUN 1C DEB",
        "group": "fengyun-1c-debris",
        "lat": 54.33246082226069,
        "lon": -162.7455039065285,
        "alt_km": 857.9260293809866,
        "timestamp": "2025-12-10T23:33:13.089818+00:00",
        "meta_object_name": "FENGYUN 1C DEB",
        "meta_object_id": "1999-025DF",
        "meta_epoch": "2025-12-10T07:43:31.193184",
        "meta_mean_motion": 14.09450179,
        "meta_eccentricity": 0.0011749,
        "meta_inclination": 98.7277,
        "meta_ra_of_asc_node": 4.2567,
        "meta_arg_of_pericenter": 229.1867,
        "meta_mean_anomaly": 151.0885,
        "meta_ephemeris_type": 0,
        "meta_classification_type": "U",
        "meta_norad_cat_id": 29813,
        "meta_element_set_no": 999,
        "meta_rev_at_epoch": 97226,
        "meta_bstar": 6.2876e-05,
        "meta_mean_motion_dot": 6.7e-07,
        "meta_mean_motion_ddot": 0,
        "tle_line1": "1 29813U 99025DF  25344.32188881  .00000067  00000+0  62876-4 0  9990",
        "tle_line2": "2 29813  98.7277   4.2567 0011749 229.1867 151.0885 14.09450179972260"
      },
      "geometry": {
        "type": "Point",
        "coordinates": [
          -162.7455039065285,
          54.33246082226069
        ]
      }
    },
    {
      "type": "Feature",
      "properties": {
        "norad_id": 29815,
        "name": "FENGYUN 1C DEB",
        "group": "fengyun-1c-debris",
        "lat": 60.70486303959644,
        "lon": -171.84174143339223,
        "alt_km": 555.0528453029638,
        "timestamp": "2025-12-10T23:33:13.089839+00:00",
        "meta_object_name": "FENGYUN 1C DEB",
        "meta_object_id": "1999-025DH",
        "meta_epoch": "2025-12-10T11:31:59.132928",
        "meta_mean_motion": 14.63689426,
        "meta_eccentricity": 0.01839362,
        "meta_inclination": 98.0562,
        "meta_ra_of_asc_node": 353.0464,
        "meta_arg_of_pericenter": 142.2941,
        "meta_mean_anomaly": 219.132,
        "meta_ephemeris_type": 0,
        "meta_classification_type": "U",
        "meta_norad_cat_id": 29815,
        "meta_element_set_no": 999,
        "meta_rev_at_epoch": 99822,
        "meta_bstar": 0.00070000824,
        "meta_mean_motion_dot": 4.608e-05,
        "meta_mean_motion_ddot": 0,
        "tle_line1": "1 29815U 99025DH  25344.48054552  .00004608  00000+0  70001-3 0  9999",
        "tle_line2": "2 29815  98.0562 353.0464 0183936 142.2941 219.1320 14.63689426998222"
      },
      "geometry": {
        "type": "Point",
        "coordinates": [
          -171.84174143339223,
          60.70486303959644
        ]
      }
    }
  ]
}